{
  "type": "FeatureCollection",
  "features": [
    {
      "type": "Feature",
      "properties": {
        "norad_id": 66459,
        "name": "STARLINK-35449",
        "group": "last-30-days",
        "lat": -42.237310584481335,
        "lon": 18.33148726658914,
        "alt_km": 399.29498392234564,
        "timestamp": "2025-12-04T03:47:53.335563+00:00",
        "meta_object_name": "STARLINK-35449",
        "meta_object_id": "2025-262D",
        "meta_epoch": "2025-12-03T12:00:02.998944",
        "meta_mean_motion": 15.59724815,
        "meta_eccentricity": 0.0001148,
        "meta_inclination": 42.9995,
        "meta_ra_of_asc_node": 125.2302,
        "meta_arg_of_pericenter": 275.7281,
        "meta_mean_anomaly": 247.9361,
        "meta_ephemeris_type": 0,
        "meta_classification_type": "U",
        "meta_norad_cat_id": 66459,
        "meta_element_set_no": 999,
        "meta_rev_at_epoch": 415,
        "meta_bstar": -0.029526,
        "meta_mean_motion_dot": -0.02155129,
        "meta_mean_motion_ddot": 0,
        "tle_line1": "1 66459U 25262D   25337.50003471 -.02155129  00000+0 -29526-1 0  9998",
        "tle_line2": "2 66459  42.9995 125.2302 0001148 275.7281 247.9361 15.59724815  4150"
      },
      "geometry": {
        "type": "Point",
        "coordinates": [
          18.33148726658914,
          -42.237310584481335
        ]
      }
    },
    {
      "type": "Feature",
      "properties": {
        "norad_id": 66460,
        "name": "STARLINK-35424",
        "group": "last-30-days",
        "lat": -42.50369074207553,
        "lon": 20.904205949264753,
        "alt_km": 399.3330157987539,
        "timestamp": "2025-12-04T03:47:53.335573+00:00",
        "meta_object_name": "STARLINK-35424",
        "meta_object_id": "2025-262E",
        "meta_epoch": "2025-12-03T12:00:02.998944",
        "meta_mean_motion": 15.59719899,
        "meta_eccentricity": 0.0001026,
        "meta_inclination": 42.9997,
        "meta_ra_of_asc_node": 125.2252,
        "meta_arg_of_pericenter": 271.9227,
        "meta_mean_anomaly": 253.66,
        "meta_ephemeris_type": 0,
        "meta_classification_type": "U",
        "meta_norad_cat_id": 66460,
        "meta_element_set_no": 999,
        "meta_rev_at_epoch": 415,
        "meta_bstar": -0.029395,
        "meta_mean_motion_dot": -0.02146237,
        "meta_mean_motion_ddot": 0,
        "tle_line1": "1 66460U 25262E   25337.50003471 -.02146237  00000+0 -29395-1 0  9994",
        "tle_line2": "2 66460  42.9997 125.2252 0001026 271.9227 253.6600 15.59719899  4157"
      },
      "geometry": {
        "type": "Point",
        "coordinates": [
          20.904205949264753,
          -42.50369074207553
        ]
      }
    },
    {
      "type": "Feature",
      "properties": {
        "norad_id": 66461,
        "name": "STARLINK-35132",
        "group": "last-30-days",
        "lat": -42.71073374129178,
        "lon": 23.483488987234967,
        "alt_km": 399.312982583383,
        "timestamp": "2025-12-04T03:47:53.335583+00:00",
        "meta_object_name": "STARLINK-35132",
        "meta_object_id": "2025-262F",
        "meta_epoch": "2025-12-03T12:00:02.998944",
        "meta_mean_motion": 15.59723484,
        "meta_eccentricity": 0.0001069,
        "meta_inclination": 42.9997,
        "meta_ra_of_asc_node": 125.2205,
        "meta_arg_of_pericenter": 273.1375,
        "meta_mean_anomaly": 254.3585,
        "meta_ephemeris_type": 0,
        "meta_classification_type": "U",
        "meta_norad_cat_id": 66461,
        "meta_element_set_no": 999,
        "meta_rev_at_epoch": 415,
        "meta_bstar": -0.029438,
        "meta_mean_motion_dot": -0.021493,
        "meta_mean_motion_ddot": 0,
        "tle_line1": "1 66461U 25262F   25337.50003471 -.02149300  00000+0 -29438-1 0  9997",
        "tle_line2": "2 66461  42.9997 125.2205 0001069 273.1375 254.3585 15.59723484  4156"
      },
      "geometry": {
        "type": "Point",
        "coordinates": [
          23.483488987234967,
          -42.71073374129178
        ]
      }
    },
    {
      "type": "Feature",
      "properties": {
        "norad_id": 66462,
        "name": "STARLINK-35499",
        "group": "last-30-days",
        "lat": -42.85960408668099,
        "lon": 26.083019284042607,
        "alt_km": 399.2805209380067,
        "timestamp": "2025-12-04T03:47:53.335595+00:00",
        "meta_object_name": "STARLINK-35499",
        "meta_object_id": "2025-262G",
        "meta_epoch": "2025-12-03T12:00:02.998944",
        "meta_mean_motion": 15.59719224,
        "meta_eccentricity": 0.0001096,
        "meta_inclination": 42.9997,
        "meta_ra_of_asc_node": 125.2155,
        "meta_arg_of_pericenter": 270.6423,
        "meta_mean_anomaly": 258.7737,
        "meta_ephemeris_type": 0,
        "meta_classification_type": "U",
        "meta_norad_cat_id": 66462,
        "meta_element_set_no": 999,
        "meta_rev_at_epoch": 415,
        "meta_bstar": -0.029369,
        "meta_mean_motion_dot": -0.02144527,
        "meta_mean_motion_ddot": 0,
        "tle_line1": "1 66462U 25262G   25337.50003471 -.02144527  00000+0 -29369-1 0  9997",
        "tle_line2": "2 66462  42.9997 125.2155 0001096 270.6423 258.7737 15.59719224  4151"
      },
      "geometry": {
        "type": "Point",
        "coordinates": [
          26.083019284042607,
          -42.85960408668099
        ]
      }
    },
    {
      "type": "Feature",
      "properties": {
        "norad_id": 66463,
        "name": "STARLINK-35463",
        "group": "last-30-days",
        "lat": -42.979147333805486,
        "lon": 31.293828478923075,
        "alt_km": 399.1405772648877,
        "timestamp": "2025-12-04T03:47:53.335605+00:00",
        "meta_object_name": "STARLINK-35463",
        "meta_object_id": "2025-262H",
        "meta_epoch": "2025-12-03T12:00:02.998944",
        "meta_mean_motion": 15.59719378,
        "meta_eccentricity": 0.0001307,
        "meta_inclination": 42.9997,
        "meta_ra_of_asc_node": 125.2055,
        "meta_arg_of_pericenter": 271.7889,
        "meta_mean_anomaly": 261.4609,
        "meta_ephemeris_type": 0,
        "meta_classification_type": "U",
        "meta_norad_cat_id": 66463,
        "meta_element_set_no": 999,
        "meta_rev_at_epoch": 415,
        "meta_bstar": -0.029399,
        "meta_mean_motion_dot": -0.02146609,
        "meta_mean_motion_ddot": 0,
        "tle_line1": "1 66463U 25262H   25337.50003471 -.02146609  00000+0 -29399-1 0  9994",
        "tle_line2": "2 66463  42.9997 125.2055 0001307 271.7889 261.4609 15.59719378  4153"
      },
      "geometry": {
        "type": "Point",
        "coordinates": [
          31.293828478923075,
          -42.979147333805486
        ]
      }
    },
    {
      "type": "Feature",
      "properties": {
        "norad_id": 66464,
        "name": "STARLINK-35435",
        "group": "last-30-days",
        "lat": -42.948988167220534,
        "lon": 28.683669630693142,
        "alt_km": 399.26791706703443,
        "timestamp": "2025-12-04T03:47:53.335615+00:00",
        "meta_object_name": "STARLINK-35435",
        "meta_object_id": "2025-262J",
        "meta_epoch": "2025-12-03T12:00:02.998944",
        "meta_mean_motion": 15.59720949,
        "meta_eccentricity": 0.0001143,
        "meta_inclination": 42.9997,
        "meta_ra_of_asc_node": 125.2106,
        "meta_arg_of_pericenter": 276.4878,
        "meta_mean_anomaly": 254.8426,
        "meta_ephemeris_type": 0,
        "meta_classification_type": "U",
        "meta_norad_cat_id": 66464,
        "meta_element_set_no": 999,
        "meta_rev_at_epoch": 415,
        "meta_bstar": -0.029389,
        "meta_mean_motion_dot": -0.02146003,
        "meta_mean_motion_ddot": 0,
        "tle_line1": "1 66464U 25262J   25337.50003471 -.02146003  00000+0 -29389-1 0  9992",
        "tle_line2": "2 66464  42.9997 125.2106 0001143 276.4878 254.8426 15.59720949  4158"
      },
      "geometry": {
        "type": "Point",
        "coordinates": [
          28.683669630693142,
          -42.948988167220534
        ]
      }
    },
    {
      "type": "Feature",
      "properties": {
        "norad_id": 66465,
        "name": "STARLINK-35448",
        "group": "last-30-days",
        "lat": -42.86042147088811,
        "lon": 36.52326963238288,
        "alt_km": 399.2846613183174,
        "timestamp": "2025-12-04T03:47:53.335625+00:00",
        "meta_object_name": "STARLINK-35448",
        "meta_object_id": "2025-262K",
        "meta_epoch": "2025-12-03T12:00:02.998944",
        "meta_mean_motion": 15.59714299,
        "meta_eccentricity": 0.0001109,
        "meta_inclination": 42.9998,
        "meta_ra_of_asc_node": 125.1964,
        "meta_arg_of_pericenter": 264.3055,
        "meta_mean_anomaly": 272.7828,
        "meta_ephemeris_type": 0,
        "meta_classification_type": "U",
        "meta_norad_cat_id": 66465,
        "meta_element_set_no": 999,
        "meta_rev_at_epoch": 415,
        "meta_bstar": -0.029303,
        "meta_mean_motion_dot": -0.02139909,
        "meta_mean_motion_ddot": 0,
        "tle_line1": "1 66465U 25262K   25337.50003471 -.02139909  00000+0 -29303-1 0  9996",
        "tle_line2": "2 66465  42.9998 125.1964 0001109 264.3055 272.7828 15.59714299  4152"
      },
      "geometry": {
        "type": "Point",
        "coordinates": [
          36.52326963238288,
          -42.86042147088811
        ]
      }
    }
  ]
}